{
  "last_updated": "2025-12-19T06:00:02.376510",
  "satellites": {
    "98592": {
      "name": "DUTHSat-2",
      "norad_id": "98592",
      "tle": "1 64530U 25135C   25352.81800465  .00012650  00000-0  56091-3 0  9991\n2 64530  97.4499 104.6871 0006097  98.9245 261.2682 15.21721992 27452",
      "epoch": "2025-12-18T19:37:55.601760",
      "fetched_at": "2025-12-19T06:00:02.515395",
      "source": "satnogs"
    },
    "98530": {
      "name": "LAMARR",
      "norad_id": "98530",
      "tle": "1 98530U          25352.15343325 +.00014079 +00000+0 +71437-3 0 00321\n2 98530  97.4378  63.7958 0006101 288.8939  71.1633 15.17017874002945",
      "epoch": "2025-12-18T03:40:56.632800",
      "fetched_at": "2025-12-19T06:00:02.572573",
      "source": "satnogs"
    },
    "98529": {
      "name": "DIRAC",
      "norad_id": "98529",
      "tle": "1 98529U          25352.15019594 +.00013881 +00000+0 +69882-3 0 00272\n2 98529  97.4349  63.7939 0005080 295.5411  64.5297 15.17302311002940",
      "epoch": "2025-12-18T03:36:16.929216",
      "fetched_at": "2025-12-19T06:00:02.625977",
      "source": "satnogs"
    },
    "98518": {
      "name": "MICE-1",
      "norad_id": "98518",
      "tle": "1 98518U 25276Z   25345.50761227  .00000000  00000-0  85911-3 0 00002\n2 98518  97.4491  57.2978 0004401 288.2412 177.0173 15.17054724 01824",
      "epoch": "2025-12-11T12:10:57.700128",
      "fetched_at": "2025-12-19T06:00:02.682256",
      "source": "satnogs"
    }
  },
  "fetch_log": [
    {
      "norad_id": "98592",
      "name": "DUTHSat-2",
      "status": "success",
      "source": "satnogs",
      "timestamp": "2025-12-19T06:00:02.515399"
    },
    {
      "norad_id": "98530",
      "name": "LAMARR",
      "status": "success",
      "source": "satnogs",
      "timestamp": "2025-12-19T06:00:02.572587"
    },
    {
      "norad_id": "98529",
      "name": "DIRAC",
      "status": "success",
      "source": "satnogs",
      "timestamp": "2025-12-19T06:00:02.625987"
    },
    {
      "norad_id": "98518",
      "name": "MICE-1",
      "status": "success",
      "source": "satnogs",
      "timestamp": "2025-12-19T06:00:02.682260"
    }
  ]
}